start=new Date('2023-02-12T00:00:00.000Z').valueOf();
sats=[{"ELEMENT_SET_NO":"999","CENTER_NAME":"EARTH","RCS_SIZE":"LARGE","EPHEMERIS_TYPE":"0","MEAN_ANOMALY":"294.2486","ECCENTRICITY":"0.00015670","SEMIMAJOR_AXIS":"6925.358","NORAD_CAT_ID":"48651","TLE_LINE1":"1 48651U 21044P   23042.89347827  .00000260  00000-0  36358-4 0  9991","CLASSIFICATION_TYPE":"U","OBJECT_TYPE":"PAYLOAD","FILE":"3786577","INCLINATION":"53.0537","BSTAR":"0.00003635800000","REV_AT_EPOCH":"9462","REF_FRAME":"TEME","PERIAPSIS":"546.138","SITE":"AFETR","GP_ID":"225183238","DECAY_DATE":null,"TIME_SYSTEM":"UTC","MEAN_MOTION_DDOT":"0.0000000000000","LAUNCH_DATE":"2021-05-26","MEAN_MOTION_DOT":"0.00000260","COUNTRY_CODE":"US","OBJECT_ID":"2021-044P","TLE_LINE2":"2 48651  53.0537 117.5578 0001567  65.8667 294.2486 15.06396941 94620","APOAPSIS":"548.308","ARG_OF_PERICENTER":"65.8667","RA_OF_ASC_NODE":"117.5578","EPOCH":"2023-02-11T21:26:36.522528","PERIOD":"95.592","OBJECT_NAME":"STARLINK-2731","MEAN_ELEMENT_THEORY":"SGP4","MEAN_MOTION":"15.06396941"},{"ELEMENT_SET_NO":"999","CENTER_NAME":"EARTH","RCS_SIZE":"LARGE","EPHEMERIS_TYPE":"0","MEAN_ANOMALY":"288.7138","ECCENTRICITY":"0.00015210","SEMIMAJOR_AXIS":"6925.277","TLE_LINE1":"1 48652U 21044Q   23042.69074726  .00013775  00000-0  94124-3 0  9994","CLASSIFICATION_TYPE":"U","NORAD_CAT_ID":"48652","OBJECT_TYPE":"PAYLOAD","FILE":"3786577","INCLINATION":"53.0521","BSTAR":"0.00094124000000","REV_AT_EPOCH":"9459","REF_FRAME":"TEME","PERIAPSIS":"546.089","SITE":"AFETR","GP_ID":"225183989","DECAY_DATE":null,"MEAN_MOTION_DDOT":"0.0000000000000","TIME_SYSTEM":"UTC","LAUNCH_DATE":"2021-05-26","MEAN_MOTION_DOT":"0.00013775","COUNTRY_CODE":"US","OBJECT_ID":"2021-044Q","APOAPSIS":"548.195","TLE_LINE2":"2 48652  53.0521 118.4681 0001521  71.4016 288.7138 15.06423351 94594","RA_OF_ASC_NODE":"118.4681","ARG_OF_PERICENTER":"71.4016","EPOCH":"2023-02-11T16:34:40.563264","PERIOD":"95.591","OBJECT_NAME":"STARLINK-2727","MEAN_ELEMENT_THEORY":"SGP4","MEAN_MOTION":"15.06423351"},{"FILE":"3786577","OBJECT_TYPE":"PAYLOAD","BSTAR":"0.00012220000000","INCLINATION":"53.0536","REF_FRAME":"TEME","REV_AT_EPOCH":"9458","CENTER_NAME":"EARTH","ELEMENT_SET_NO":"999","MEAN_ANOMALY":"278.0999","EPHEMERIS_TYPE":"0","RCS_SIZE":"LARGE","SEMIMAJOR_AXIS":"6925.298","ECCENTRICITY":"0.00012510","CLASSIFICATION_TYPE":"U","TLE_LINE1":"1 48653U 21044R   23042.62070528  .00001540  00000-0  12220-3 0  9998","NORAD_CAT_ID":"48653","EPOCH":"2023-02-11T14:53:48.936192","OBJECT_NAME":"STARLINK-2720","PERIOD":"95.591","MEAN_MOTION":"15.06416451","MEAN_ELEMENT_THEORY":"SGP4","PERIAPSIS":"546.297","GP_ID":"225182237","DECAY_DATE":null,"SITE":"AFETR","MEAN_MOTION_DOT":"0.00001540","LAUNCH_DATE":"2021-05-26","MEAN_MOTION_DDOT":"0.0000000000000","TIME_SYSTEM":"UTC","ARG_OF_PERICENTER":"82.0131","RA_OF_ASC_NODE":"118.7854","APOAPSIS":"548.029","TLE_LINE2":"2 48653  53.0536 118.7854 0001251  82.0131 278.0999 15.06416451 94581","OBJECT_ID":"2021-044R","COUNTRY_CODE":"US"},{"ELEMENT_SET_NO":"999","CENTER_NAME":"EARTH","RCS_SIZE":"LARGE","EPHEMERIS_TYPE":"0","MEAN_ANOMALY":"279.0245","ECCENTRICITY":"0.00017700","SEMIMAJOR_AXIS":"6925.358","CLASSIFICATION_TYPE":"U","TLE_LINE1":"1 48654U 21044S   23042.48434844  .00031073  00000-0  20959-2 0  9999","NORAD_CAT_ID":"48654","OBJECT_TYPE":"PAYLOAD","FILE":"3786577","INCLINATION":"53.0520","BSTAR":"0.00209590000000","REV_AT_EPOCH":"9456","REF_FRAME":"TEME","PERIAPSIS":"545.998","SITE":"AFETR","GP_ID":"225182487","DECAY_DATE":null,"TIME_SYSTEM":"UTC","MEAN_MOTION_DDOT":"0.0000000000000","MEAN_MOTION_DOT":"0.00031073","LAUNCH_DATE":"2021-05-26","COUNTRY_CODE":"US","OBJECT_ID":"2021-044S","APOAPSIS":"548.449","TLE_LINE2":"2 48654  53.0520 119.4012 0001770  81.0944 279.0245 15.06396806 94560","ARG_OF_PERICENTER":"81.0944","RA_OF_ASC_NODE":"119.4012","EPOCH":"2023-02-11T11:37:27.705216","PERIOD":"95.592","OBJECT_NAME":"STARLINK-2651","MEAN_ELEMENT_THEORY":"SGP4","MEAN_MOTION":"15.06396806"},{"ECCENTRICITY":"0.00017090","SEMIMAJOR_AXIS":"6925.321","TLE_LINE1":"1 48655U 21044T   23042.61333719  .00002393  00000-0  17944-3 0  9998","CLASSIFICATION_TYPE":"U","NORAD_CAT_ID":"48655","CENTER_NAME":"EARTH","ELEMENT_SET_NO":"999","EPHEMERIS_TYPE":"0","RCS_SIZE":"LARGE","MEAN_ANOMALY":"269.1513","REF_FRAME":"TEME","REV_AT_EPOCH":"9458","OBJECT_TYPE":"PAYLOAD","FILE":"3786577","INCLINATION":"53.0540","BSTAR":"0.00017944000000","MEAN_MOTION_DDOT":"0.0000000000000","TIME_SYSTEM":"UTC","MEAN_MOTION_DOT":"0.00002393","LAUNCH_DATE":"2021-05-26","TLE_LINE2":"2 48655  53.0540 118.8208 0001709  90.9672 269.1513 15.06409017 94581","APOAPSIS":"548.369","OBJECT_ID":"2021-044T","COUNTRY_CODE":"US","ARG_OF_PERICENTER":"90.9672","RA_OF_ASC_NODE":"118.8208","PERIAPSIS":"546.002","SITE":"AFETR","GP_ID":"225183739","DECAY_DATE":null,"OBJECT_NAME":"STARLINK-2657","PERIOD":"95.592","MEAN_ELEMENT_THEORY":"SGP4","MEAN_MOTION":"15.06409017","EPOCH":"2023-02-11T14:43:12.333216"},{"GP_ID":"225183489","DECAY_DATE":null,"SITE":"AFETR","PERIAPSIS":"546.142","ARG_OF_PERICENTER":"71.6278","RA_OF_ASC_NODE":"118.8351","OBJECT_ID":"2021-044U","COUNTRY_CODE":"US","TLE_LINE2":"2 48656  53.0531 118.8351 0001490  71.6278 288.4873 15.06412875 94585","APOAPSIS":"548.206","MEAN_MOTION_DOT":"0.00002145","LAUNCH_DATE":"2021-05-26","MEAN_MOTION_DDOT":"0.0000000000000","TIME_SYSTEM":"UTC","EPOCH":"2023-02-11T14:37:53.563872","MEAN_MOTION":"15.06412875","MEAN_ELEMENT_THEORY":"SGP4","PERIOD":"95.591","OBJECT_NAME":"STARLINK-2701","MEAN_ANOMALY":"288.4873","RCS_SIZE":"LARGE","EPHEMERIS_TYPE":"0","ELEMENT_SET_NO":"999","CENTER_NAME":"EARTH","CLASSIFICATION_TYPE":"U","TLE_LINE1":"1 48656U 21044U   23042.60964773  .00002145  00000-0  16281-3 0  9996","NORAD_CAT_ID":"48656","SEMIMAJOR_AXIS":"6925.309","ECCENTRICITY":"0.00014900","BSTAR":"0.00016281000000","INCLINATION":"53.0531","FILE":"3786577","OBJECT_TYPE":"PAYLOAD","REV_AT_EPOCH":"9458","REF_FRAME":"TEME"},{"REV_AT_EPOCH":"9456","REF_FRAME":"TEME","INCLINATION":"53.0533","BSTAR":"0.00014931000000","OBJECT_TYPE":"PAYLOAD","FILE":"3786577","CLASSIFICATION_TYPE":"U","TLE_LINE1":"1 48657U 21044V   23042.47328450  .00001942  00000-0  14931-3 0  9992","NORAD_CAT_ID":"48657","ECCENTRICITY":"0.00018040","SEMIMAJOR_AXIS":"6925.379","RCS_SIZE":"LARGE","EPHEMERIS_TYPE":"0","MEAN_ANOMALY":"277.7814","ELEMENT_SET_NO":"999","CENTER_NAME":"EARTH","MEAN_ELEMENT_THEORY":"SGP4","MEAN_MOTION":"15.06390173","PERIOD":"95.593","OBJECT_NAME":"STARLINK-2734","EPOCH":"2023-02-11T11:21:31.780800","COUNTRY_CODE":"US","OBJECT_ID":"2021-044V","TLE_LINE2":"2 48657  53.0533 119.4436 0001804  82.3380 277.7814 15.06390173 94561","APOAPSIS":"548.493","RA_OF_ASC_NODE":"119.4436","ARG_OF_PERICENTER":"82.3380","MEAN_MOTION_DDOT":"0.0000000000000","TIME_SYSTEM":"UTC","MEAN_MOTION_DOT":"0.00001942","LAUNCH_DATE":"2021-05-26","SITE":"AFETR","GP_ID":"225182738","DECAY_DATE":null,"PERIAPSIS":"545.994"},{"REV_AT_EPOCH":"9459","REF_FRAME":"TEME","OBJECT_TYPE":"PAYLOAD","FILE":"3786577","INCLINATION":"53.0526","BSTAR":"0.00308650000000","ECCENTRICITY":"0.00010720","SEMIMAJOR_AXIS":"6925.258","TLE_LINE1":"1 48658U 21044W   23042.66863489  .00046030  00000-0  30865-2 0  9990","CLASSIFICATION_TYPE":"U","NORAD_CAT_ID":"48658","ELEMENT_SET_NO":"999","CENTER_NAME":"EARTH","RCS_SIZE":"LARGE","EPHEMERIS_TYPE":"0","MEAN_ANOMALY":"266.0236","PERIOD":"95.590","OBJECT_NAME":"STARLINK-2647","MEAN_ELEMENT_THEORY":"SGP4","MEAN_MOTION":"15.06429411","EPOCH":"2023-02-11T16:02:50.054496","MEAN_MOTION_DDOT":"0.0000000000000","TIME_SYSTEM":"UTC","MEAN_MOTION_DOT":"0.00046030","LAUNCH_DATE":"2021-05-26","OBJECT_ID":"2021-044W","COUNTRY_CODE":"US","APOAPSIS":"547.866","TLE_LINE2":"2 48658  53.0526 118.5650 0001072  94.0876 266.0236 15.06429411 94599","RA_OF_ASC_NODE":"118.5650","ARG_OF_PERICENTER":"94.0876","PERIAPSIS":"546.381","SITE":"AFETR","GP_ID":"225182988","DECAY_DATE":null},{"OBJECT_TYPE":"PAYLOAD","FILE":"3786577","INCLINATION":"53.0509","BSTAR":"0.00279510000000","REF_FRAME":"TEME","REV_AT_EPOCH":"9459","CENTER_NAME":"EARTH","ELEMENT_SET_NO":"999","EPHEMERIS_TYPE":"0","RCS_SIZE":"LARGE","MEAN_ANOMALY":"267.4703","ECCENTRICITY":"0.00011140","SEMIMAJOR_AXIS":"6925.267","NORAD_CAT_ID":"48659","TLE_LINE1":"1 48659U 21044X   23042.66494872  .00041628  00000-0  27951-2 0  9997","CLASSIFICATION_TYPE":"U","EPOCH":"2023-02-11T15:57:31.569408","OBJECT_NAME":"STARLINK-2717","PERIOD":"95.590","MEAN_ELEMENT_THEORY":"SGP4","MEAN_MOTION":"15.06426524","PERIAPSIS":"546.361","SITE":"AFETR","DECAY_DATE":null,"GP_ID":"225183239","TIME_SYSTEM":"UTC","MEAN_MOTION_DDOT":"0.0000000000000","MEAN_MOTION_DOT":"0.00041628","LAUNCH_DATE":"2021-05-26","APOAPSIS":"547.904","TLE_LINE2":"2 48659  53.0509 118.5842 0001114  92.6414 267.4703 15.06426524 94599","COUNTRY_CODE":"US","OBJECT_ID":"2021-044X","RA_OF_ASC_NODE":"118.5842","ARG_OF_PERICENTER":"92.6414"},{"ECCENTRICITY":"0.00012410","SEMIMAJOR_AXIS":"6925.308","TLE_LINE1":"1 48660U 21044Y   23042.52856118  .00001831  00000-0  14176-3 0  9997","NORAD_CAT_ID":"48660","CLASSIFICATION_TYPE":"U","CENTER_NAME":"EARTH","ELEMENT_SET_NO":"999","EPHEMERIS_TYPE":"0","RCS_SIZE":"LARGE","MEAN_ANOMALY":"269.3327","REF_FRAME":"TEME","REV_AT_EPOCH":"9457","OBJECT_TYPE":"PAYLOAD","FILE":"3786577","INCLINATION":"53.0545","BSTAR":"0.00014176000000","MEAN_MOTION_DDOT":"0.0000000000000","TIME_SYSTEM":"UTC","LAUNCH_DATE":"2021-05-26","MEAN_MOTION_DOT":"0.00001831","APOAPSIS":"548.033","TLE_LINE2":"2 48660  53.0545 119.1914 0001241  90.7804 269.3327 15.06413177 94572","OBJECT_ID":"2021-044Y","COUNTRY_CODE":"US","ARG_OF_PERICENTER":"90.7804","RA_OF_ASC_NODE":"119.1914","PERIAPSIS":"546.314","SITE":"AFETR","DECAY_DATE":null,"GP_ID":"225183990","OBJECT_NAME":"STARLINK-2688","PERIOD":"95.591","MEAN_ELEMENT_THEORY":"SGP4","MEAN_MOTION":"15.06413177","EPOCH":"2023-02-11T12:41:07.685952"}];
